GLOBALSTAR M057         
1 25943U 99058A   25172.84728554 -.00000052  00000+0  36815-3 0  9997
2 25943  52.0003 334.9794 0003025  41.9212 318.1868 12.24822600167504
GLOBALSTAR M059         
1 25944U 99058B   25173.08255000 -.00000047  00000+0  49032-3 0  9995
2 25944  51.9986 193.9300 0000644 293.8167  99.7600 11.99979979163381
GLOBALSTAR M056         
1 25945U 99058C   25173.06132147 -.00000076  00000+0  13806-3 0  9992
2 25945  51.9931 195.8216 0001188 197.8475 190.0757 12.04782072163255
GLOBALSTAR M031         
1 25946U 99058D   25172.84570536 -.00000059  00000+0  32007-3 0  9991
2 25946  51.9965  88.4617 0000827 171.7139 231.6910 12.16036460165118
GLOBALSTAR M039         
1 25961U 99062A   25172.59904646 -.00000062  00000+0  23476-3 0  9992
2 25961  51.9840 255.2807 0002268   4.1562 355.9323 12.62328894180809
GLOBALSTAR M034         
1 25962U 99062B   25172.76796722 -.00000118  00000+0 -58024-3 0  9996
2 25962  51.9897 359.4798 0014785  52.0215 320.5200 11.79446584138935
GLOBALSTAR M029         
1 25963U 99062C   25172.45758494 -.00000095  00000+0 -10940-3 0  9996
2 25963  51.9811  83.6521 0002600 112.7178  58.9163 11.99897751169636
GLOBALSTAR M061         
1 25964U 99062D   25172.73590942 -.00000071  00000+0  14861-3 0  9999
2 25964  51.9762 183.6589 0006112 330.6573 202.6980 11.76776136121719
